[{"OBJECT_NAME":"STARLINK-35018","OBJECT_ID":"2025-184R","EPOCH":"2026-03-09T16:45:02.727072","MEAN_MOTION":15.05656306,"ECCENTRICITY":0.00014479,"INCLINATION":97.6039,"RA_OF_ASC_NODE":122.6932,"ARG_OF_PERICENTER":84.7291,"MEAN_ANOMALY":275.4101,"EPHEMERIS_TYPE":0,"CLASSIFICATION_TYPE":"U","NORAD_CAT_ID":65288,"ELEMENT_SET_NO":999,"REV_AT_EPOCH":3130,"BSTAR":0.00048497413,"MEAN_MOTION_DOT":6.945e-5,"MEAN_MOTION_DDOT":0},{"OBJECT_NAME":"FENGYUN 1C DEB","OBJECT_ID":"1999-025CDM","EPOCH":"2026-03-09T06:24:55.905408","MEAN_MOTION":15.0430028,"ECCENTRICITY":0.00202824,"INCLINATION":99.0326,"RA_OF_ASC_NODE":346.4521,"ARG_OF_PERICENTER":26.5298,"MEAN_ANOMALY":133.8427,"EPHEMERIS_TYPE":0,"CLASSIFICATION_TYPE":"U","NORAD_CAT_ID":31714,"ELEMENT_SET_NO":999,"REV_AT_EPOCH":97342,"BSTAR":0.0098433176,"MEAN_MOTION_DOT":0.00140271,"MEAN_MOTION_DDOT":0}]
